ZHOU ENLAI              
1 43156U 18008B   21122.53779549  .00001599  00000-0  96727-4 0  9992
2 43156  97.4097 188.7153 0015909 123.2318 355.6040 15.11938575181079
QUANTUTONG 1            
1 43158U 18008D   21122.44324905  .00001532  00000-0  94275-4 0  9999
2 43158  97.4027 187.2635 0014785 122.3905 249.8747 15.11380334180998
S-NET D                 
1 43186U 18014G   21122.37062271  .00000522  00000-0  50323-4 0  9998
2 43186  97.6807  30.7796 0009376 231.2574 128.7811 14.97038783177409
S-NET B                 
1 43187U 18014H   21122.30368526  .00000528  00000-0  50878-4 0  9995
2 43187  97.6804  30.6820 0009376 231.4526 128.5856 14.97038192177392
S-NET A                 
1 43188U 18014J   21121.70213801  .00000651  00000-0  61541-4 0  9990
2 43188  97.6808  30.1337 0009333 233.7042 126.3318 14.97036222177308
S-NET C                 
1 43189U 18014K   21122.30417897  .00000491  00000-0  47586-4 0  9994
2 43189  97.6805  30.6755 0009362 231.5435 128.4947 14.97037046175943
FENGMANIU-1 (FMN-1)     
1 43192U 18015A   21122.43232929  .00003915  00000-0  14669-3 0  9993
2 43192  97.4818 257.6012 0015816  49.1729  22.1779 15.27762100180563
SHAONIAN XING           
1 43199U 18015H   21122.44190770  .00002882  00000-0  11010-3 0  9997
2 43199  97.4597 254.9349 0017178  58.0452  13.0370 15.27328928180621
LUOJIA-1 01             
1 43485U 18048B   21122.46307992  .00000253  00000-0  43259-4 0  9990
2 43485  97.9621 204.7643 0012771  85.6163 274.6506 14.76833552157202
SURFSAT                 
1 43614U 18070B   21121.68851141  .00005146  00000-0  12169-3 0  9993
2 43614  93.0267 286.5343 0014360 174.7447 185.3962 15.41743030147460
CP7 (DAVE)              
1 43615U 18070C   21121.69728513  .00005217  00000-0  12447-3 0  9999
2 43615  93.0270 286.4997 0014518 174.8567 185.2841 15.41469372147456
ELFIN-B                 
1 43616U 18070D   21121.99881581  .00007463  00000-0  16279-3 0  9990
2 43616  93.0227 286.7618 0014645 172.4377 187.7104 15.44128069147600
ELFIN-A                 
1 43617U 18070E   21121.71287619  .00008288  00000-0  17823-3 0  9995
2 43617  93.0277 287.4452 0014044 170.0655 190.0883 15.44554093147573
STARS-ME                
1 43640U 98067PQ  21122.10816755  .00125023  16914-4  39453-3 0  9993
2 43640  51.6258 112.7739 0004193  80.5473 279.6007 15.91112129146903
CZ-4B R/B               
1 43656U 18081B   21121.89193863  .00000032  00000-0  27776-4 0  9994
2 43656  99.3610 218.5507 0207682 246.7677 111.1514 14.30464192131515
CUBEBEL-1 (BSUSAT-1)    
1 43666U 18083E   21122.54925973  .00001870  00000-0  91902-4 0  9998
2 43666  97.4600 151.4914 0013764 336.1925 176.0679 15.19211746139048
CHANGSHAGAOXIN (TY 4-01)
1 43669U 18083H   21122.49964538  .00001303  00000-0  67350-4 0  9996
2 43669  97.4496 148.6569 0009849 333.2270 164.0262 15.18016657138911
TEN-KOH                 
1 43677U 18084G   21121.86390820  .00000222  00000-0  28638-4 0  9998
2 43677  97.9131 244.8014 0015931 183.1582 176.9538 14.90447818136363
DIWATA-2B               
1 43678U 18084H   21122.37181335  .00000282  00000-0  33755-4 0  9997
2 43678  97.9162 247.4327 0009380 195.2771 164.8169 14.91739115136562
STARS-AO                
1 43679U 18084J   21122.30483522  .00000601  00000-0  64280-4 0  9996
2 43679  97.9207 248.5067 0008600 201.8927 158.1925 14.92481595136605
AUTCUBE 2               
1 43681U 18084K   21122.32155912  .00000187  00000-0  24093-4 0  9997
2 43681  97.9171 247.6825 0009082 195.3500 164.7444 14.92061192136537
IRVINE01                
1 43693U 18088D   21121.78170632  .00004714  00000-0  18543-3 0  9991
2 43693  85.0372 225.9574 0016595 189.7314 170.3611 15.25237010137326
ES'HAIL 2               
1 43700U 18090A   21122.12430719  .00000131  00000-0  00000+0 0  9991
2 43700   0.0321  90.9833 0001258 320.0276 239.8089  1.00272212  9140
FACSAT-1                
1 43721U 18096C   21122.51969823  .00002731  00000-0  10026-3 0  9997
2 43721  97.3860 200.0128 0018520  75.3847  52.2814 15.28655931135102
CENTAURI-2              
1 43722U 18096D   21121.78023175  .00003568  00000-0  12605-3 0  9991
2 43722  97.3882 199.9826 0018195  77.8913 282.4365 15.29714644135024
3CAT-1                  
1 43728U 18096K   21122.52723633  .00003882  00000-0  13562-3 0  9998
2 43728  97.3895 201.2690 0018224  78.5912  48.7131 15.30020579135168
INNOSAT-2               
1 43738U 18096V   21122.46921807  .00005615  00000-0  17666-3 0  9990
2 43738  97.3931 204.1722 0023129  77.0473  52.9351 15.33100679135359
REAKTOR HELLO WORLD     
1 43743U 18096AA  21121.84445643  .00002356  00000-0  86901-4 0  9994
2 43743  97.3866 199.7138 0018939  83.1060 277.2333 15.28626245135016
ELYSIUM STAR 2 & LFF    
1 43760U 18099C   21121.84915392  .00000682  00000-0  65414-4 0  9995
2 43760  97.6721 194.0642 0013375 197.6563 162.4195 14.96233542131547
2018-099D               
1 43761U 18099D   21121.90644702  .00000034  00000-0  82081-5 0  9998
2 43761  97.6687 193.5455 0013673 200.5422 159.5247 14.95283684131517
AISTECHSAT 2            
1 43768U 18099L   21121.71657575  .00000101  00000-0  14400-4 0  9990
2 43768  97.6647 192.3150 0010994 198.5368 161.5453 14.94876344131160
FOX-1CLIFF (AO-95)      
1 43770U 18099N   21122.47760868  .00000963  00000-0  92512-4 0  9993
2 43770  97.6674 193.6751 0013879 205.4217 154.6323 14.95283038131588
RANGE-A                 
1 43772U 18099Q   21122.44815347  .00000262  00000-0  28722-4 0  9999
2 43772  97.6756 194.5711 0013833 192.8737 167.2133 14.95571959131584
RANGE-B                 
1 43773U 18099R   21122.47988966  .00000751  00000-0  73455-4 0  9997
2 43773  97.6610 193.0460 0013197 191.7663 168.3251 14.95186653131573
2018-099T               
1 43775U 18099T   21122.14866405  .00000723  00000-0  70768-4 0  9999
2 43775  97.6678 193.5631 0014149 197.5691 162.5042 14.95260587131525
MOVE-II                 
1 43780U 18099Y   21122.45731189  .00000729  00000-0  70221-4 0  9999
2 43780  97.6686 194.1376 0013005 202.4153 157.6502 14.95859832131592
SNUSAT-2                
1 43782U 18099AA  21122.45087464  .00000167  00000-0  20174-4 0  9999
2 43782  97.6669 193.9742 0012464 191.2631 168.8313 14.95526445131598
SNUGLITE                
1 43784U 18099AC  21122.46306802  .00000662  00000-0  64554-4 0  9992
2 43784  97.6633 193.7248 0014656 199.7646 160.3009 14.95646649131615
ITASAT 1                
1 43786U 18099AE  21122.20521587  .00000809  00000-0  77961-4 0  9994
2 43786  97.6691 194.0543 0014724 199.7117 160.3537 14.95580849131572
KAZSCISAT-1             
1 43787U 18099AF  21122.14235862  .00001337  00000-0  12401-3 0  9990
2 43787  97.6605 193.1965 0013771 195.9818 164.0971 14.96042438131585
EAGLET-I                
1 43790U 18099AJ  21121.71548498 -.00000148  00000-0 -80551-5 0  9992
2 43790  97.6680 193.9685 0012797 205.7710 154.2875 14.95940459131221
ESEO                    
1 43792U 18099AL  21121.76032444  .00000186  00000-0  21783-4 0  9999
2 43792  97.6651 193.6405 0012591 201.5308 158.5385 14.95726181131280
CSIM-FD                 
1 43793U 18099AM  21121.74416007  .00001414  00000-0  12928-3 0  9994
2 43793  97.6675 193.9355 0012696 196.2155 163.8662 14.96518670131280
ASTROCAST 0.1           
1 43798U 18099AS  21122.47446243  .00001305  00000-0  12091-3 0  9995
2 43798  97.6684 194.8893 0012504 180.6600 179.4607 14.96131086131646
JY1SAT (JO-97)          
1 43803U 18099AX  21122.44413492  .00000078  00000-0  12115-4 0  9993
2 43803  97.6651 194.0460 0014598 199.3747 160.6921 14.95819653131613
SUOMI-100               
1 43804U 18099AY  21122.44876664  .00000145  00000-0  18086-4 0  9996
2 43804  97.6648 194.0208 0014706 199.6085 160.4572 14.95791758131625
AL-FARABI 2             
1 43805U 18099AZ  21122.52329842  .00000186  00000-0  21637-4 0  9998
2 43805  97.6664 194.2926 0014542 199.2871 160.7802 14.95996042131644
CENTAURI-1              
1 43809U 18099BD  21122.46061344  .00000385  00000-0  39609-4 0  9994
2 43809  97.6660 194.3279 0014772 200.4642 159.5989 14.95800889131322
CHOMPTT                 
1 43855U 18104G   21121.83202960  .00001571  00000-0  63285-4 0  9998
2 43855  85.0347 324.4165 0015764 325.1645  34.8564 15.23853817131994
DAVINCI                 
1 43857U 18104J   21121.80503873  .00003700  00000-0  14592-3 0  9996
2 43857  85.0302 324.3128 0014380 353.0176   7.0865 15.25100191131973
UWE-4                   
1 43880U 18111E   21122.25806576  .00000064  00000-0  10633-4 0  9999
2 43880  97.6895  30.7739 0010813 258.8599 101.1407 14.96824530126170
ZACUBE-2                
1 43907U 18111AH  21122.40602330  .00001024  00000-0  43401-4 0  9994
2 43907  97.2376  18.0880 0022942  95.4849  21.0178 15.25125260130611
MICRODRAGON             
1 43935U 19003D   21121.68370977  .00001083  00000-0  48455-4 0  9993
2 43935  97.1860 165.1217 0017667 185.8352 174.2682 15.23193958126981
AOBA VELOX-IV           
1 43940U 19003J   21122.11032590  .00004130  00000-0  15774-3 0  9997
2 43940  97.1822 167.9415 0023129 169.5685 190.6040 15.26921773127239
M6P                     
1 44109U 19018AF  21121.74494322  .00003370  00000-0  10400-3 0  9990
2 44109  97.4273 198.7028 0056846 158.0655 202.3040 15.32696713116301
SPOOQY-1                
1 44332U 98067QH  21121.84045789  .00039510  00000-0  29345-3 0  9992
2 44332  51.6319 165.4792 0003953  69.2355 290.9067 15.72432970106759
FORMOSAT 7-4            
1 44350U 19036M   21121.87251899  .00001145  00000-0  51357-4 0  9997
2 44350  24.0003 329.6033 0005923 213.9940 146.0184 15.07744845101292
PAINANI 1               
1 44365U 19037A   21122.11243272  .00004001  00000-0  10366-3 0  9996
2 44365  45.0039 155.9762 0006585 292.1878  67.8311 15.40840933103626
ACRUX 1                 
1 44369U 19037E   21121.44962823  .00008655  00000-0  17678-3 0  9997
2 44369  45.0048 139.3725 0011786 278.1530  81.8023 15.46576082103716
